LANDSAT 9               
1 49260U 21088A   24095.76349062  .00000471  00000+0  11462-3 0  9995
2 49260  98.1921 166.6091 0001418  85.1965 274.9395 14.57116924133994
